[{"OBJECT_NAME":"REAL","OBJECT_ID":"2025-154G","EPOCH":"2026-03-09T17:20:09.670560","MEAN_MOTION":15.28408058,"ECCENTRICITY":0.00018528,"INCLINATION":97.4133,"RA_OF_ASC_NODE":137.2581,"ARG_OF_PERICENTER":118.5876,"MEAN_ANOMALY":241.555,"EPHEMERIS_TYPE":0,"CLASSIFICATION_TYPE":"U","NORAD_CAT_ID":64875,"ELEMENT_SET_NO":999,"REV_AT_EPOCH":3483,"BSTAR":0.0008290401,"MEAN_MOTION_DOT":0.00022901,"MEAN_MOTION_DDOT":0},{"OBJECT_NAME":"STARLINK-36466","OBJECT_ID":"2026-003AA","EPOCH":"2026-03-09T11:18:12.521664","MEAN_MOTION":15.27560079,"ECCENTRICITY":0.00013387,"INCLINATION":43.0005,"RA_OF_ASC_NODE":228.0147,"ARG_OF_PERICENTER":282.9558,"MEAN_ANOMALY":77.1145,"EPHEMERIS_TYPE":0,"CLASSIFICATION_TYPE":"U","NORAD_CAT_ID":67358,"ELEMENT_SET_NO":999,"REV_AT_EPOCH":879,"BSTAR":0.00096967921,"MEAN_MOTION_DOT":0.00026501,"MEAN_MOTION_DDOT":0}]
